{
    "links": {
        "self": "http://www.neowsapp.com/rest/v1/neo/3721990?api_key=iIulBulltgU6a56xZRHN4H3l9WmuAYTsLGpBGhQ2"
    },
    "id": "3721990",
    "neo_reference_id": "3721990",
    "name": "(2015 MS59)",
    "designation": "2015 MS59",
    "nasa_jpl_url": "http://ssd.jpl.nasa.gov/sbdb.cgi?sstr=3721990",
    "absolute_magnitude_h": 21.0,
    "estimated_diameter": {
        "kilometers": {
            "estimated_diameter_min": 0.1677084622,
            "estimated_diameter_max": 0.3750075218
        },
        "meters": {
            "estimated_diameter_min": 167.7084621628,
            "estimated_diameter_max": 375.0075217981
        },
        "miles": {
            "estimated_diameter_min": 0.1042091748,
            "estimated_diameter_max": 0.2330187988
        },
        "feet": {
            "estimated_diameter_min": 550.2246310023,
            "estimated_diameter_max": 1230.3396778159
        }
    },
    "is_potentially_hazardous_asteroid": false,
    "close_approach_data": [
        {
            "close_approach_date": "1951-02-09",
            "close_approach_date_full": "1951-Feb-09 00:55",
            "epoch_date_close_approach": -596243100000,
            "relative_velocity": {
                "kilometers_per_second": "5.1916052485",
                "kilometers_per_hour": "18689.7788944686",
                "miles_per_hour": "11613.101780288"
            },
            "miss_distance": {
                "astronomical": "0.0950253903",
                "lunar": "36.9648768267",
                "kilometers": "14215595.984798661",
                "miles": "8833161.7458010818"
            },
            "orbiting_body": "Mars"
        },
        {
            "close_approach_date": "2015-08-25",
            "close_approach_date_full": "2015-Aug-25 18:28",
            "epoch_date_close_approach": 1440527280000,
            "relative_velocity": {
                "kilometers_per_second": "2.5255905749",
                "kilometers_per_hour": "9092.12606963",
                "miles_per_hour": "5649.4935569876"
            },
            "miss_distance": {
                "astronomical": "0.265577474",
                "lunar": "103.309637386",
                "kilometers": "39729824.43038038",
                "miles": "24686968.151114044"
            },
            "orbiting_body": "Earth"
        },
        {
            "close_approach_date": "2054-07-24",
            "close_approach_date_full": "2054-Jul-24 11:57",
            "epoch_date_close_approach": 2668507020000,
            "relative_velocity": {
                "kilometers_per_second": "5.1979590081",
                "kilometers_per_hour": "18712.6524292592",
                "miles_per_hour": "11627.3145052805"
            },
            "miss_distance": {
                "astronomical": "0.0918068069",
                "lunar": "35.7128478841",
                "kilometers": "13734102.763741303",
                "miles": "8533975.7316758614"
            },
            "orbiting_body": "Mars"
        }
    ],
    "orbital_data": {
        "orbit_id": "43",
        "orbit_determination_date": "2017-04-06 08:33:02",
        "first_observation_date": "2015-06-16",
        "last_observation_date": "2015-11-16",
        "data_arc_in_days": 153,
        "observations_used": 184,
        "orbit_uncertainty": "4",
        "minimum_orbit_intersection": ".262597",
        "jupiter_tisserand_invariant": "3.556",
        "epoch_osculation": "2459000.5",
        "eccentricity": ".4184559966443411",
        "semi_major_axis": "2.186595670861144",
        "inclination": "2.866914417769225",
        "ascending_node_longitude": "168.2978911222077",
        "orbital_period": "1181.00341320534",
        "perihelion_distance": "1.271601600152742",
        "perihelion_argument": "168.61387772",
        "aphelion_distance": "3.101589741569545",
        "perihelion_time": "2458449.890333299665",
        "mean_anomaly": "167.8398875022187",
        "mean_motion": ".304825537314012",
        "equinox": "J2000",
        "orbit_class": {
            "orbit_class_type": "AMO",
            "orbit_class_description": "Near-Earth asteroid orbits similar to that of 1221 Amor",
            "orbit_class_range": "1.017 AU < q (perihelion) < 1.3 AU"
        }
    },
    "is_sentry_object": false
}